OSCAR 7 (AO-7)          
1 07530U 74089B   20350.86600437 -.00000054  00000-0 -52981-4 0  9997
2 07530 101.8285 319.7632 0012426  15.9989  37.6545 12.53646533108725
UOSAT 2 (UO-11)         
1 14781U 84021B   20350.90134697  .00000131  00000-0  22122-4 0  9993
2 14781  97.5893 353.8397 0007683 334.6388  25.4449 14.83226027958725
LUSAT (LO-19)           
1 20442U 90005G   20350.63933587  .00000001  00000-0  17028-4 0  9993
2 20442  98.7168 298.6950 0011542 347.2963  12.7928 14.32970373614503
EYESAT A (AO-27)        
1 22825U 93061C   20350.93209295 -.00000012  00000-0  13534-4 0  9991
2 22825  98.9245 357.9711 0007980 202.5666 157.5165 14.30100875420029
ITAMSAT (IO-26)         
1 22826U 93061D   20351.08572954  .00000001  00000-0  18404-4 0  9992
2 22826  98.9188 358.0556 0008726 189.8134 170.2879 14.30438214420262
RADIO ROSTO (RS-15)     
1 23439U 94085A   20350.93708456 -.00000037  00000-0  15882-3 0  9997
2 23439  64.8171 312.7572 0154613   8.2391 352.1019 11.27569674 69644
JAS-2 (FO-29)           
1 24278U 96046B   20350.84682377 -.00000024  00000-0  14681-4 0  9994
2 24278  98.5878  76.9891 0349264 265.1734  90.9450 13.53101235201415
TECHSAT 1B (GO-32)      
1 25397U 98043D   20350.90737096 -.00000007  00000-0  16366-4 0  9995
2 25397  98.7500 291.1825 0000308 204.5564 155.5599 14.23697205165372
ISS (ZARYA)             
1 25544U 98067A   20351.01824032 -.00000000  00000-0  80995-5 0  9998
2 25544  51.6435 168.7689 0001686 124.1158  18.3563 15.49187115260202
PCSAT (NO-44)           
1 26931U 01043C   20350.52140380 -.00000022  00000-0  23251-4 0  9994
2 26931  67.0522  35.1216 0007288 273.6516  86.3751 14.30599034  2941
SAUDISAT 1C (SO-50)     
1 27607U 02058C   20350.92330138  .00000033  00000-0  25035-4 0  9991
2 27607  64.5537 179.5319 0030039 105.7426 254.6993 14.75691439967637
CUTE-1 (CO-55)          
1 27844U 03031E   20350.93663402  .00000063  00000-0  47884-4 0  9999
2 27844  98.6814 355.9306 0008886 247.8120 112.2115 14.22275930905932
CUBESAT XI-IV (CO-57)   
1 27848U 03031J   20350.94589360  .00000045  00000-0  40293-4 0  9991
2 27848  98.6877 356.5074 0008719 262.2270  97.7917 14.21857667905766
MOZHAYETS 4 (RS-22)     
1 27939U 03042A   20351.03579367  .00000091  00000-0  24896-4 0  9993
2 27939  98.1151 123.7332 0013929 136.0602 224.1696 14.66922499920632
CUBESAT XI-V            
1 28895U 05043F   20350.89959302  .00000162  00000-0  39825-4 0  9999
2 28895  98.0338 122.4602 0017963  70.8131 289.5014 14.63841473807159
CUTE-1.7+APD II (CO-65) 
1 32785U 08021C   20350.69784369  .00000375  00000-0  45932-4 0  9990
2 32785  97.5911 330.9257 0011538 250.5429 109.4542 14.88588068684833
DELFI-C3 (DO-64)        
1 32789U 08021G   20350.82146535  .00001345  00000-0  90530-4 0  9998
2 32789  97.3980  27.1230 0013244  58.6920 301.5604 15.08277021689146
SEEDS II (CO-66)        
1 32791U 08021J   20350.51763645  .00000684  00000-0  74093-4 0  9995
2 32791  97.5546 336.8172 0012269 213.9699 146.0736 14.91213732685446
YUBILEINY (RS-30)       
1 32953U 08025A   20351.04800458  .00000028  00000-0  12906-3 0  9998
2 32953  82.5019 164.9933 0019421  19.0399 341.1402 12.43098947570196
KKS-1 (KISEKI)          
1 33499U 09002H   20351.11771906  .00000156  00000-0  30762-4 0  9996
2 33499  98.2915 210.7064 0007826 265.8924  94.1390 14.75594800639808
SWISSCUBE               
1 35932U 09051B   20350.79454648  .00000171  00000-0  49531-4 0  9999
2 35932  98.6070 178.9409 0006598 294.7948  65.2562 14.56463742596225
BEESAT-1                
1 35933U 09051C   20351.11147707  .00000145  00000-0  43616-4 0  9991
2 35933  98.6051 181.1286 0004938 310.8377  49.2391 14.56530792596420
ITUPSAT1                
1 35935U 09051E   20350.80068589  .00000127  00000-0  40359-4 0  9999
2 35935  98.6156 180.9800 0007238 309.4220  50.6335 14.55669850596054
XIWANG-1 (HOPE-1)       
1 36122U 09072B   20350.75162621 -.00000021  00000-0  55850-4 0  9993
2 36122 100.1111 333.2156 0007584 160.4671 199.6729 13.16358199528726
JUGNU                   
1 37839U 11058B   20350.09865831  .00000316  00000-0  26163-4 0  9997
2 37839  19.9611 267.2505 0018920 219.3935 168.2623 14.12697985474362
SRMSAT                  
1 37841U 11058D   20350.67340146  .00000310  00000-0  25439-4 0  9990
2 37841  19.9733 331.8405 0012085  75.3075  80.5178 14.10680491473742
M-CUBED & EXP-1 PRIME   
1 37855U 11061F   20350.55214659  .00002226  00000-0  11549-3 0  9999
2 37855 101.7257 172.5695 0169096 257.2987 100.9277 15.06907012498478
STRAND-1                
1 39090U 13009E   20350.55935301  .00000049  00000-0  32174-4 0  9999
2 39090  98.4382 190.9412 0010251 104.1867 256.0459 14.35159336408664
SOMP                    
1 39134U 13015E   20350.54945139  .00002403  00000-0  11425-3 0  9995
2 39134  64.8651  50.1263 0016649 220.1955 139.7943 15.21726498423223
BEESAT-3                
1 39135U 13015F   20350.63270044  .00001862  00000-0  98449-4 0  9992
2 39135  64.8688  76.1095 0021578 211.1404 148.8446 15.18709705422722
BEESAT-2                
1 39136U 13015G   20350.68667198  .00001716  00000-0  92586-4 0  9992
2 39136  64.8779  81.5874 0031922 264.4750  95.2735 15.18097819422629
ZACUBE-1 (TSHEPISOSAT)  
1 39417U 13066B   20350.93636333  .00000386  00000-0  54322-4 0  9993
2 39417  97.5767 338.9781 0059820  43.8996 316.6947 14.81382646381909
GOMX-1                  
1 39430U 13066Q   20351.07916771  .00000480  00000-0  95763-4 0  9990
2 39430  97.8057 278.7537 0150496 332.9738  26.3681 14.59503102376299
CUBEBUG-2 (LO-74)       
1 39440U 13066AA  20350.48769108  .00000329  00000-0  52131-4 0  9999
2 39440  97.6529 323.1971 0081311 112.0880 248.8990 14.76115935379281
FUNCUBE-1 (AO-73)       
1 39444U 13066AE  20350.96354822  .00000493  00000-0  66313-4 0  9998
2 39444  97.5691 341.3193 0058729  35.2824 325.2255 14.82261529380849
UWE-3                   
1 39446U 13066AG  20350.50479854  .00000374  00000-0  55651-4 0  9994
2 39446  97.6162 330.3121 0071344  79.3927 281.5310 14.78650351379322
SPROUT                  
1 39770U 14029E   20351.19621219  .00001021  00000-0  11711-3 0  9992
2 39770  97.9082  96.8421 0010362  90.8614 269.3796 14.88063595356086
UNISAT-6                
1 40012U 14033C   20351.17874251  .00000248  00000-0  43799-4 0  9994
2 40012  97.6886 197.0585 0059174 132.0462 228.5804 14.74208534349195
DUCHIFAT-1              
1 40021U 14033M   20350.88199829  .00000639  00000-0  70281-4 0  9992
2 40021  97.9570 283.3445 0014075  53.0178 307.2325 14.91101499352928
QB50P1                  
1 40025U 14033R   20350.67078195  .00000470  00000-0  55539-4 0  9997
2 40025  97.9236 275.0051 0013774  65.6441 294.6212 14.89275572352069
NUDT-PHONESAT           
1 40900U 15049B   20351.13707287  .00004131  00000-0  16763-3 0  9993
2 40900  97.4263   0.5739 0013995  67.3643   5.0707 15.25085158290871
ZDPS 2A                 
1 40901U 15049C   20351.20955069  .00002204  00000-0  10892-3 0  9991
2 40901  97.4627 354.5788 0014948  98.7943 325.7011 15.18816635290157
ZDPS 2B                 
1 40902U 15049D   20351.19213287  .00002375  00000-0  11708-3 0  9995
2 40902  97.4635 351.8387 0015002  96.3378 330.5117 15.18825919290123
XW-2A                   
1 40903U 15049E   20351.16241759  .00003639  00000-0  81561-4 0  9997
2 40903  97.2650  40.0698 0011856 330.0119 104.4987 15.44020551294502
KAITUO 1A               
1 40904U 15049F   20351.18830764  .00000963  00000-0  53620-4 0  9992
2 40904  97.4815 349.5518 0016030 110.6868 312.5655 15.15920431289779
2015-049G               
1 40905U 15049G   20351.21339326  .00000504  00000-0  30665-4 0  9990
2 40905  97.4928 346.7074 0017150 109.0299 312.0177 15.14747715289590
XW-2C                   
1 40906U 15049H   20351.12925684  .00001281  00000-0  69268-4 0  9993
2 40906  97.4815 349.8816 0016213 101.2504 323.6260 15.16364521289780
XW-2D                   
1 40907U 15049J   20351.15889212  .00001139  00000-0  61511-4 0  9998
2 40907  97.4804 349.6525 0015666  98.8019 323.6719 15.16633212289816
LILACSAT-2              
1 40908U 15049K   20351.17816153  .00000771  00000-0  45705-4 0  9993
2 40908  97.4981 347.7758 0017378 111.0932 315.4379 15.14217128289491
XW-2F                   
1 40910U 15049M   20351.14551750  .00001923  00000-0  96480-4 0  9998
2 40910  97.4707 352.4769 0016252  88.6942 336.5972 15.18413516289907
XW-2B                   
1 40911U 15049N   20351.15227644  .00001137  00000-0  61557-4 0  9996
2 40911  97.4807 350.3434 0015624  99.9252 324.4614 15.16555175289709
KAITUO 1B               
1 40912U 15049P   20351.11590289  .00002247  00000-0  10458-3 0  9997
2 40912  97.4472 356.7473 0016178  66.2652   6.7107 15.20868838290322
TIANWANG 1C (TW-1C)     
1 40926U 15051B   20351.17098709  .00094293  00000-0  47744-3 0  9991
2 40926  97.0559  45.1908 0004480 112.6571 310.1088 15.81270052295552
TIANWANG 1A (TW-1A)     
1 40928U 15051D   20351.16075287  .00005408  00000-0  12047-3 0  9996
2 40928  97.0943  14.5333 0008287 239.4540 194.4167 15.43982836293395
LAPAN-A2                
1 40931U 15052B   20351.17105857  .00000589  00000-0 -72395-5 0  9999
2 40931   5.9988 119.5102 0013943 331.8762  28.1569 14.76653875282169
E-ST@R-II               
1 41459U 16025D   20351.16349241  .00001211  00000-0  64225-4 0  9996
2 41459  98.1202 110.8750 0162200 320.5068  38.4438 15.07098879254807
AAUSAT 4                
1 41460U 16025E   20351.07471287  .00003334  00000-0  16298-3 0  9998
2 41460  98.1185 113.8049 0149690 307.0257  51.7332 15.09711440255036
NUSAT-1 (FRESCO)        
1 41557U 16033B   20351.15808200  .00002642  00000-0  97362-4 0  9995
2 41557  97.4003  80.2228 0013722 158.3402 291.0484 15.28634366253526
BEESAT-4                
1 41619U 16040W   20350.67918061  .00002316  00000-0  96531-4 0  9990
2 41619  97.2969  45.7420 0009259 258.5291 101.4907 15.24652863237000
